SAC-D
1 37673U 11024A   13347.42128495 +.00000000 +00000+0 +12541-4 6  9461
2 37673  98.0126 352.2946 0001729  78.9734 153.8619 14.72300263134438
